ONEWEB-0703             
1 56724U 23068Q   25328.43585558  .00000093  00000+0  21243-3 0  9992
2 56724  87.8968 300.0685 0002759  98.7982 261.3461 13.15549243122331
ONEWEB-0721             
1 56725U 23068R   25328.25362382 -.00000025  00000+0 -94057-4 0  9992
2 56725  86.6791 150.8851 0001450  90.6451 269.4849 13.22451483130859
ONEWEB-0015             
1 61594U 24188A   25328.30003579 -.00000379  00000+0 -11048-2 0  9991
2 61594  87.8861  61.9009 0001512 125.0366 235.0904 13.11417828 57609
ONEWEB-0687             
1 61595U 24188B   25328.27906847  .00000179  00000+0  42869-3 0  9990
2 61595  87.9114  46.6468 0001253 107.9083 252.2185 13.17650912 58914
ONEWEB-0688             
1 61596U 24188C   25328.45960646  .00000040  00000+0  69433-4 0  9992
2 61596  87.9123  46.6111 0001541 148.3088 211.8137 13.17647237 58930
ONEWEB-0689             
1 61597U 24188D   25328.33395043  .00000688  00000+0  19040-2 0  9998
2 61597  87.8844  61.8309 0001520 101.0250 259.1049 13.11416274 57601
ONEWEB-0690             
1 61598U 24188E   25328.26783311  .00000391  00000+0  10686-2 0  9998
2 61598  87.8884  61.8526 0002554 110.8511 249.2890 13.11416050 57777
ONEWEB-0691             
1 61599U 24188F   25328.26274541  .00000587  00000+0  16216-2 0  9991
2 61599  87.8826  61.7612 0001711 120.5884 239.5413 13.11416792 57624
ONEWEB-0692             
1 61600U 24188G   25328.28306978 -.00000334  00000+0 -97924-3 0  9994
2 61600  87.8856  61.8977 0002004  78.1721 281.9632 13.11415614 57614
ONEWEB-0693             
1 61601U 24188H   25328.24361733  .00000035  00000+0  57565-4 0  9995
2 61601  87.9118  46.6729 0002537 115.5433 244.5961 13.17647253 58893
ONEWEB-0695             
1 61602U 24188J   25328.33564679  .00000603  00000+0  16668-2 0  9998
2 61602  87.8861  61.8764 0001558  89.9002 270.2304 13.11416166 57611
ONEWEB-0697             
1 61603U 24188K   25328.29155909 -.00000456  00000+0 -13236-2 0  9992
2 61603  87.8860  61.8754 0002000  80.6606 279.4748 13.11417684 57597
ONEWEB-0698             
1 61604U 24188L   25328.49841932  .00000225  00000+0  59887-3 0  9998
2 61604  87.8860  61.8494 0002669  89.1297 271.0136 13.11415170 57643
ONEWEB-0699             
1 61605U 24188M   25328.34832395 -.00000234  00000+0 -70728-3 0  9995
2 61605  87.8817  77.0919 0001998  84.6524 275.4832 13.10374120 56484
ONEWEB-0700             
1 61606U 24188N   25328.34999007 -.00000330  00000+0 -98108-3 0  9999
2 61606  87.8822  76.9752 0001442  79.6878 280.4412 13.10375959 56474
ONEWEB-0701             
1 61607U 24188P   25328.36660905  .00000594  00000+0  16659-2 0  9994
2 61607  87.8812  77.0895 0002063  81.5770 278.5591 13.10374257 56484
ONEWEB-0702             
1 61608U 24188Q   25328.23899186  .00000311  00000+0  84280-3 0  9999
2 61608  87.8816  61.7933 0001849  75.1644 284.9689 13.11415819 57629
