[{"OBJECT_NAME":"ONEWEB-0703","OBJECT_ID":"2023-068Q","EPOCH":"2025-11-24T10:27:37.922112","MEAN_MOTION":13.15549243,"ECCENTRICITY":0.0002759,"INCLINATION":87.8968,"RA_OF_ASC_NODE":300.0685,"ARG_OF_PERICENTER":98.7982,"MEAN_ANOMALY":261.3461,"EPHEMERIS_TYPE":0,"CLASSIFICATION_TYPE":"U","NORAD_CAT_ID":56724,"ELEMENT_SET_NO":999,"REV_AT_EPOCH":12233,"BSTAR":0.00021243,"MEAN_MOTION_DOT":9.3e-7,"MEAN_MOTION_DDOT":0},{"OBJECT_NAME":"ONEWEB-0721","OBJECT_ID":"2023-068R","EPOCH":"2025-11-24T06:05:13.098048","MEAN_MOTION":13.22451483,"ECCENTRICITY":0.000145,"INCLINATION":86.6791,"RA_OF_ASC_NODE":150.8851,"ARG_OF_PERICENTER":90.6451,"MEAN_ANOMALY":269.4849,"EPHEMERIS_TYPE":0,"CLASSIFICATION_TYPE":"U","NORAD_CAT_ID":56725,"ELEMENT_SET_NO":999,"REV_AT_EPOCH":13085,"BSTAR":-9.4057e-5,"MEAN_MOTION_DOT":-2.5e-7,"MEAN_MOTION_DDOT":0},{"OBJECT_NAME":"ONEWEB-0015","OBJECT_ID":"2024-188A","EPOCH":"2025-11-24T07:12:03.092256","MEAN_MOTION":13.11417828,"ECCENTRICITY":0.0001512,"INCLINATION":87.8861,"RA_OF_ASC_NODE":61.9009,"ARG_OF_PERICENTER":125.0366,"MEAN_ANOMALY":235.0904,"EPHEMERIS_TYPE":0,"CLASSIFICATION_TYPE":"U","NORAD_CAT_ID":61594,"ELEMENT_SET_NO":999,"REV_AT_EPOCH":5760,"BSTAR":-0.0011048,"MEAN_MOTION_DOT":-3.79e-6,"MEAN_MOTION_DDOT":0},{"OBJECT_NAME":"ONEWEB-0687","OBJECT_ID":"2024-188B","EPOCH":"2025-11-24T06:41:51.515808","MEAN_MOTION":13.17650912,"ECCENTRICITY":0.0001253,"INCLINATION":87.9114,"RA_OF_ASC_NODE":46.6468,"ARG_OF_PERICENTER":107.9083,"MEAN_ANOMALY":252.2185,"EPHEMERIS_TYPE":0,"CLASSIFICATION_TYPE":"U","NORAD_CAT_ID":61595,"ELEMENT_SET_NO":999,"REV_AT_EPOCH":5891,"BSTAR":0.00042869,"MEAN_MOTION_DOT":1.79e-6,"MEAN_MOTION_DDOT":0},{"OBJECT_NAME":"ONEWEB-0688","OBJECT_ID":"2024-188C","EPOCH":"2025-11-24T11:01:49.998144","MEAN_MOTION":13.17647237,"ECCENTRICITY":0.0001541,"INCLINATION":87.9123,"RA_OF_ASC_NODE":46.6111,"ARG_OF_PERICENTER":148.3088,"MEAN_ANOMALY":211.8137,"EPHEMERIS_TYPE":0,"CLASSIFICATION_TYPE":"U","NORAD_CAT_ID":61596,"ELEMENT_SET_NO":999,"REV_AT_EPOCH":5893,"BSTAR":6.9433e-5,"MEAN_MOTION_DOT":4.0e-7,"MEAN_MOTION_DDOT":0},{"OBJECT_NAME":"ONEWEB-0689","OBJECT_ID":"2024-188D","EPOCH":"2025-11-24T08:00:53.317152","MEAN_MOTION":13.11416274,"ECCENTRICITY":0.000152,"INCLINATION":87.8844,"RA_OF_ASC_NODE":61.8309,"ARG_OF_PERICENTER":101.025,"MEAN_ANOMALY":259.1049,"EPHEMERIS_TYPE":0,"CLASSIFICATION_TYPE":"U","NORAD_CAT_ID":61597,"ELEMENT_SET_NO":999,"REV_AT_EPOCH":5760,"BSTAR":0.001904,"MEAN_MOTION_DOT":6.88e-6,"MEAN_MOTION_DDOT":0},{"OBJECT_NAME":"ONEWEB-0690","OBJECT_ID":"2024-188E","EPOCH":"2025-11-24T06:25:40.780704","MEAN_MOTION":13.1141605,"ECCENTRICITY":0.0002554,"INCLINATION":87.8884,"RA_OF_ASC_NODE":61.8526,"ARG_OF_PERICENTER":110.8511,"MEAN_ANOMALY":249.289,"EPHEMERIS_TYPE":0,"CLASSIFICATION_TYPE":"U","NORAD_CAT_ID":61598,"ELEMENT_SET_NO":999,"REV_AT_EPOCH":5777,"BSTAR":0.0010686,"MEAN_MOTION_DOT":3.91e-6,"MEAN_MOTION_DDOT":0},{"OBJECT_NAME":"ONEWEB-0691","OBJECT_ID":"2024-188F","EPOCH":"2025-11-24T06:18:21.203424","MEAN_MOTION":13.11416792,"ECCENTRICITY":0.0001711,"INCLINATION":87.8826,"RA_OF_ASC_NODE":61.7612,"ARG_OF_PERICENTER":120.5884,"MEAN_ANOMALY":239.5413,"EPHEMERIS_TYPE":0,"CLASSIFICATION_TYPE":"U","NORAD_CAT_ID":61599,"ELEMENT_SET_NO":999,"REV_AT_EPOCH":5762,"BSTAR":0.0016216,"MEAN_MOTION_DOT":5.87e-6,"MEAN_MOTION_DDOT":0},{"OBJECT_NAME":"ONEWEB-0692","OBJECT_ID":"2024-188G","EPOCH":"2025-11-24T06:47:37.228992","MEAN_MOTION":13.11415614,"ECCENTRICITY":0.0002004,"INCLINATION":87.8856,"RA_OF_ASC_NODE":61.8977,"ARG_OF_PERICENTER":78.1721,"MEAN_ANOMALY":281.9632,"EPHEMERIS_TYPE":0,"CLASSIFICATION_TYPE":"U","NORAD_CAT_ID":61600,"ELEMENT_SET_NO":999,"REV_AT_EPOCH":5761,"BSTAR":-0.00097924,"MEAN_MOTION_DOT":-3.34e-6,"MEAN_MOTION_DDOT":0},{"OBJECT_NAME":"ONEWEB-0693","OBJECT_ID":"2024-188H","EPOCH":"2025-11-24T05:50:48.537312","MEAN_MOTION":13.17647253,"ECCENTRICITY":0.0002537,"INCLINATION":87.9118,"RA_OF_ASC_NODE":46.6729,"ARG_OF_PERICENTER":115.5433,"MEAN_ANOMALY":244.5961,"EPHEMERIS_TYPE":0,"CLASSIFICATION_TYPE":"U","NORAD_CAT_ID":61601,"ELEMENT_SET_NO":999,"REV_AT_EPOCH":5889,"BSTAR":5.7565e-5,"MEAN_MOTION_DOT":3.5e-7,"MEAN_MOTION_DDOT":0},{"OBJECT_NAME":"ONEWEB-0695","OBJECT_ID":"2024-188J","EPOCH":"2025-11-24T08:03:19.882656","MEAN_MOTION":13.11416166,"ECCENTRICITY":0.0001558,"INCLINATION":87.8861,"RA_OF_ASC_NODE":61.8764,"ARG_OF_PERICENTER":89.9002,"MEAN_ANOMALY":270.2304,"EPHEMERIS_TYPE":0,"CLASSIFICATION_TYPE":"U","NORAD_CAT_ID":61602,"ELEMENT_SET_NO":999,"REV_AT_EPOCH":5761,"BSTAR":0.0016668,"MEAN_MOTION_DOT":6.03e-6,"MEAN_MOTION_DDOT":0},{"OBJECT_NAME":"ONEWEB-0697","OBJECT_ID":"2024-188K","EPOCH":"2025-11-24T06:59:50.705376","MEAN_MOTION":13.11417684,"ECCENTRICITY":0.0002,"INCLINATION":87.886,"RA_OF_ASC_NODE":61.8754,"ARG_OF_PERICENTER":80.6606,"MEAN_ANOMALY":279.4748,"EPHEMERIS_TYPE":0,"CLASSIFICATION_TYPE":"U","NORAD_CAT_ID":61603,"ELEMENT_SET_NO":999,"REV_AT_EPOCH":5759,"BSTAR":-0.0013236,"MEAN_MOTION_DOT":-4.56e-6,"MEAN_MOTION_DDOT":0},{"OBJECT_NAME":"ONEWEB-0698","OBJECT_ID":"2024-188L","EPOCH":"2025-11-24T11:57:43.429248","MEAN_MOTION":13.1141517,"ECCENTRICITY":0.0002669,"INCLINATION":87.886,"RA_OF_ASC_NODE":61.8494,"ARG_OF_PERICENTER":89.1297,"MEAN_ANOMALY":271.0136,"EPHEMERIS_TYPE":0,"CLASSIFICATION_TYPE":"U","NORAD_CAT_ID":61604,"ELEMENT_SET_NO":999,"REV_AT_EPOCH":5764,"BSTAR":0.00059887,"MEAN_MOTION_DOT":2.25e-6,"MEAN_MOTION_DDOT":0},{"OBJECT_NAME":"ONEWEB-0699","OBJECT_ID":"2024-188M","EPOCH":"2025-11-24T08:21:35.189280","MEAN_MOTION":13.1037412,"ECCENTRICITY":0.0001998,"INCLINATION":87.8817,"RA_OF_ASC_NODE":77.0919,"ARG_OF_PERICENTER":84.6524,"MEAN_ANOMALY":275.4832,"EPHEMERIS_TYPE":0,"CLASSIFICATION_TYPE":"U","NORAD_CAT_ID":61605,"ELEMENT_SET_NO":999,"REV_AT_EPOCH":5648,"BSTAR":-0.00070728,"MEAN_MOTION_DOT":-2.34e-6,"MEAN_MOTION_DDOT":0},{"OBJECT_NAME":"ONEWEB-0700","OBJECT_ID":"2024-188N","EPOCH":"2025-11-24T08:23:59.142048","MEAN_MOTION":13.10375959,"ECCENTRICITY":0.0001442,"INCLINATION":87.8822,"RA_OF_ASC_NODE":76.9752,"ARG_OF_PERICENTER":79.6878,"MEAN_ANOMALY":280.4412,"EPHEMERIS_TYPE":0,"CLASSIFICATION_TYPE":"U","NORAD_CAT_ID":61606,"ELEMENT_SET_NO":999,"REV_AT_EPOCH":5647,"BSTAR":-0.00098108,"MEAN_MOTION_DOT":-3.3e-6,"MEAN_MOTION_DDOT":0},{"OBJECT_NAME":"ONEWEB-0701","OBJECT_ID":"2024-188P","EPOCH":"2025-11-24T08:47:55.021920","MEAN_MOTION":13.10374257,"ECCENTRICITY":0.0002063,"INCLINATION":87.8812,"RA_OF_ASC_NODE":77.0895,"ARG_OF_PERICENTER":81.577,"MEAN_ANOMALY":278.5591,"EPHEMERIS_TYPE":0,"CLASSIFICATION_TYPE":"U","NORAD_CAT_ID":61607,"ELEMENT_SET_NO":999,"REV_AT_EPOCH":5648,"BSTAR":0.0016659,"MEAN_MOTION_DOT":5.94e-6,"MEAN_MOTION_DDOT":0},{"OBJECT_NAME":"ONEWEB-0702","OBJECT_ID":"2024-188Q","EPOCH":"2025-11-24T05:44:08.896704","MEAN_MOTION":13.11415819,"ECCENTRICITY":0.0001849,"INCLINATION":87.8816,"RA_OF_ASC_NODE":61.7933,"ARG_OF_PERICENTER":75.1644,"MEAN_ANOMALY":284.9689,"EPHEMERIS_TYPE":0,"CLASSIFICATION_TYPE":"U","NORAD_CAT_ID":61608,"ELEMENT_SET_NO":999,"REV_AT_EPOCH":5762,"BSTAR":0.0008428,"MEAN_MOTION_DOT":3.11e-6,"MEAN_MOTION_DDOT":0}]
